HAWK-10A                
1 60540U 24149CA  26170.77728435  .00000996  00000+0  92618-4 0  9997
2 60540  97.6899 246.6442 0004877  71.6468 288.5284 14.96524133100377
UMBRA-09                
1 60541U 24149CB  26170.76995493  .00011086  00000+0  54655-3 0  9997
2 60541  97.6955 258.0212 0000628 258.1312 101.9851 15.18109295101117
QPS-SAR-8 (AMATERU-IV)  
1 60542U 24149CC  26171.18727587  .00003584  00000+0  26271-3 0  9999
2 60542  97.6648 250.3123 0004491 102.3029 257.8700 15.04152467100724
ARCTIC WEATHER SATELLITE
1 60543U 24149CD  26170.77311231  .00000551  00000+0  63021-4 0  9995
2 60543  97.6804 241.1649 0003633  99.3192 260.8437 14.89785663 99688
CAPELLA-15 (ACADIA-5)   
1 60544U 24149CE  26171.20558149  .00003190  00000+0  31684-3 0  9997
2 60544  97.6768 244.0335 0004551  70.6196 289.5515 14.92410322100306
HAWK-10B                
1 60545U 24149CF  26170.77713397  .00000905  00000+0  84625-4 0  9992
2 60545  97.6819 245.9967 0006820  85.6924 274.5077 14.96523125100375
ICEYE-X39               
1 60546U 24149CG  26171.21245839  .00002346  00000+0  19379-3 0  9998
2 60546  97.6757 248.1948 0005641 110.8245 249.3583 14.99909997100570
UMBRA-10                
1 60547U 24149CH  26171.23090050  .00012937  00000+0  63693-3 0  9999
2 60547  97.6973 258.5167 0000449  96.2050 263.9234 15.18117660101195
ICEYE-X33               
1 60548U 24149CJ  26171.16924262  .00003764  00000+0  30044-3 0  9995
2 60548  97.7287 250.2934 0001863  87.7623 272.3814 15.00886995100651
ICEYE-X40               
1 60549U 24149CK  26171.17496119  .00001471  00000+0  12966-3 0  9998
2 60549  97.6821 247.6228 0006451  73.4508 286.7422 14.97952761100523
SATELIOT_1              
1 60550U 24149CL  26171.03230595  .00002182  00000+0  18922-3 0  9997
2 60550  97.6759 246.8828 0008396  72.2480 287.9659 14.98081894100490
BRO-14                  
1 60551U 24149CM  26171.27173326  .00000791  00000+0  75237-4 0  9999
2 60551  97.6871 246.9941 0008064  89.0835 271.1310 14.96180082100457
SATELIOT_3              
1 60552U 24149CN  26171.20848643  .00001546  00000+0  13565-3 0  9998
2 60552  97.6815 247.8504 0005945  79.7937 280.3956 14.98062219100535
BRO-15                  
1 60553U 24149CP  26170.71916882  .00001225  00000+0  11372-3 0  9993
2 60553  97.6803 246.0506 0009310  80.7782 279.4492 14.96168721100386
UM5-RIBAT               
1 60554U 24149CQ  26171.20521813  .00002227  00000+0  17870-3 0  9997
2 60554  97.6628 248.9652 0003306  56.9260 303.2281 15.01088825100644
UM5-EOSAT               
1 60555U 24149CR  26171.17068831  .00003625  00000+0  28429-3 0  9995
2 60555  97.6716 249.8717 0008887 105.2114 255.0094 15.01552474100664
LASARSAT                
1 62391U 24247Q   26171.27059198  .00028493  00000+0  56523-3 0  9997
2 62391  44.9733 244.8864 0007836 348.4451  11.6258 15.46534749 83790
CROCUBE                 
1 62394U 24247T   26170.49048578  .00032668  00000+0  60622-3 0  9997
2 62394  44.9701 246.5654 0007740 349.0739  10.9982 15.48397693 83708
TEVEL2-4                
1 63213U 25052D   26171.18155784  .00016297  00000+0  48630-3 0  9993
2 63213  97.3892  67.5778 0004925  97.4797 262.7005 15.34700095 70573
TEVEL2-5                
1 63214U 25052E   26171.26760576  .00015978  00000+0  47945-3 0  9997
2 63214  97.3892  67.6107 0004894  98.9294 261.2503 15.34527610 70582
TEVEL2-6                
1 63215U 25052F   26171.28000724  .00015976  00000+0  47994-3 0  9994
2 63215  97.3898  67.6078 0004759  99.4633 260.7149 15.34492782 70580
TEVEL2-1                
1 63217U 25052H   26171.17964496  .00015594  00000+0  47659-3 0  9993
2 63217  97.3873  67.1285 0004873 107.5627 252.6148 15.33952529 70556
TEVEL2-3                
1 63218U 25052J   26170.65232947  .00014905  00000+0  45510-3 0  9994
2 63218  97.3873  66.6229 0004838 109.1056 251.0711 15.33991826 70477
TEVEL2-2                
1 63219U 25052K   26171.17994154  .00015656  00000+0  47833-3 0  9992
2 63219  97.3871  67.1308 0004871 108.3125 251.8648 15.33961605 70553
TEVEL2-9                
1 63237U 25052AD  26171.22655169  .00013721  00000+0  44623-3 0  9993
2 63237  97.3933  66.5461 0008044 122.3024 237.8998 15.31975924 70497
TEVEL2-7                
1 63238U 25052AE  26171.20271571  .00013367  00000+0  43885-3 0  9998
2 63238  97.3934  66.4373 0008076 122.8867 237.3153 15.31676701 70483
TEVEL2-8                
1 63239U 25052AF  26170.68834909  .00012538  00000+0  41221-3 0  9991
2 63239  97.3937  65.9009 0008075 124.5955 235.6049 15.31647647 70407
FORESAIL-1 PRIME        
1 66778U 25276DS  26170.43439938  .00004058  00000+0  19871-3 0  9990
2 66778  97.4197 243.6644 0003961  98.6161 261.5522 15.18719306 30740
